[{"OBJECT_NAME":"ONEWEB-0110","OBJECT_ID":"2020-100C","EPOCH":"2026-03-09T19:58:48.959040","MEAN_MOTION":13.12444072,"ECCENTRICITY":0.00017524,"INCLINATION":87.9004,"RA_OF_ASC_NODE":10.3602,"ARG_OF_PERICENTER":88.1833,"MEAN_ANOMALY":271.9496,"EPHEMERIS_TYPE":0,"CLASSIFICATION_TYPE":"U","NORAD_CAT_ID":47260,"ELEMENT_SET_NO":999,"REV_AT_EPOCH":25169,"BSTAR":0.0010112197,"MEAN_MOTION_DOT":3.77e-6,"MEAN_MOTION_DDOT":0},{"OBJECT_NAME":"CZ-4C DEB","OBJECT_ID":"2014-080K","EPOCH":"2026-03-03T02:18:11.816640","MEAN_MOTION":13.44756707,"ECCENTRICITY":0.03687139,"INCLINATION":63.3828,"RA_OF_ASC_NODE":243.2011,"ARG_OF_PERICENTER":10.6946,"MEAN_ANOMALY":350.1653,"EPHEMERIS_TYPE":0,"CLASSIFICATION_TYPE":"U","NORAD_CAT_ID":43421,"ELEMENT_SET_NO":999,"REV_AT_EPOCH":47491,"BSTAR":0.00017362276,"MEAN_MOTION_DOT":6.3e-7,"MEAN_MOTION_DDOT":0}]
